[{"OBJECT_NAME":"CONTECSAT-1","OBJECT_ID":"2024-043V","EPOCH":"2026-03-09T22:02:35.535840","MEAN_MOTION":15.34615346,"ECCENTRICITY":0.00100896,"INCLINATION":97.5476,"RA_OF_ASC_NODE":207.3735,"ARG_OF_PERICENTER":223.9905,"MEAN_ANOMALY":136.0535,"EPHEMERIS_TYPE":0,"CLASSIFICATION_TYPE":"U","NORAD_CAT_ID":59117,"ELEMENT_SET_NO":999,"REV_AT_EPOCH":11201,"BSTAR":0.0004369392,"MEAN_MOTION_DOT":0.00014607,"MEAN_MOTION_DDOT":0},{"OBJECT_NAME":"STARLINK-35376","OBJECT_ID":"2025-232P","EPOCH":"2026-03-09T12:10:11.609184","MEAN_MOTION":15.30193815,"ECCENTRICITY":0.00013059,"INCLINATION":53.1587,"RA_OF_ASC_NODE":105.0347,"ARG_OF_PERICENTER":91.242,"MEAN_ANOMALY":268.873,"EPHEMERIS_TYPE":0,"CLASSIFICATION_TYPE":"U","NORAD_CAT_ID":66018,"ELEMENT_SET_NO":999,"REV_AT_EPOCH":2340,"BSTAR":0.0010102205,"MEAN_MOTION_DOT":0.00029674,"MEAN_MOTION_DDOT":0}]
